STARLINK-2655
1 18449C 21040X   21326.17073053 -.00009424  00000-0 -63123-3 0  3269
2 18449  53.0560  22.9656 0001125  67.6553  73.5256 15.06419540    15
